OBJECT_NAME,OBJECT_ID,EPOCH,MEAN_MOTION,ECCENTRICITY,INCLINATION,RA_OF_ASC_NODE,ARG_OF_PERICENTER,MEAN_ANOMALY,EPHEMERIS_TYPE,CLASSIFICATION_TYPE,NORAD_CAT_ID,ELEMENT_SET_NO,REV_AT_EPOCH,BSTAR,MEAN_MOTION_DOT,MEAN_MOTION_DDOT
STARLINK-35653,2025-237J,2026-07-17T07:12:40.588992,15.30206688,.0001791,53.1602,157.6546,234.6632,125.4202,0,U,66122,999,4245,.26293E-3,.7437E-4,0
STARLINK-35628,2025-237K,2026-07-17T13:50:57.736032,15.34408788,.0001072,53.1581,155.1169,80.7617,279.3507,0,U,66123,999,4251,.27156E-3,.8812E-4,0
STARLINK-35645,2025-237L,2026-07-17T07:29:44.065248,15.34364479,.0001118,53.1582,156.3112,326.0509,34.0422,0,U,66124,999,4247,.14651E-3,.4572E-4,0
STARLINK-35649,2025-237M,2026-07-17T07:23:39.162624,15.34398796,.0001392,53.1588,156.2856,87.0316,273.0845,0,U,66125,999,4247,.31963E-3,.10438E-3,0
STARLINK-35658,2025-237N,2026-07-17T07:05:28.578624,15.34403864,.0001743,53.1593,156.2074,80.3141,279.8059,0,U,66126,999,4246,.36556E-3,.11996E-3,0
STARLINK-35629,2025-237P,2026-07-17T13:57:46.702656,15.30197830,.0001423,53.1572,156.5635,92.9225,267.1939,0,U,66127,999,4249,.2282E-3,.6405E-4,0
STARLINK-35612,2025-237Q,2026-07-17T07:29:24.647712,15.30203966,.0001371,53.1576,157.7322,97.1819,262.9337,0,U,66128,999,4245,.21599E-3,.6044E-4,0
STARLINK-35632,2025-237R,2026-07-17T07:20:19.543200,15.30181184,.0001995,53.1577,157.6888,95.1030,265.0198,0,U,66129,999,4245,.15751E-3,.4306E-4,0
STARLINK-35637,2025-237S,2026-07-17T07:11:10.197312,15.30201280,.000027,53.1613,157.6501,89.6107,270.4925,0,U,66130,999,4245,.30763E-3,.8763E-4,0
STARLINK-35630,2025-237T,2026-07-17T07:02:26.786976,15.34404518,.0000795,53.1606,156.1971,61.6196,298.4887,0,U,66131,999,4247,.62844E-3,.20919E-3,0
STARLINK-34412,2025-237U,2026-07-17T07:38:48.424992,15.34397868,.0001873,53.1589,156.3518,86.4037,273.7180,0,U,66132,999,4238,.37741E-3,.12395E-3,0
STARLINK-35520,2025-237V,2026-07-17T07:08:30.358176,15.34403833,.0001427,53.1593,156.2212,95.3215,264.7950,0,U,66133,999,4247,.27919E-3,.9069E-4,0
STARLINK-35525,2025-237W,2026-07-17T07:32:44.579040,15.34404941,.000124,53.1582,156.3255,97.1223,262.9921,0,U,66134,999,4247,.60668E-3,.2018E-3,0
STARLINK-34852,2025-237X,2026-07-17T07:21:47.227104,15.30241696,.0001022,53.1576,157.6922,95.3900,264.7217,0,U,66135,999,4241,.6711E-3,.19595E-3,0
STARLINK-35592,2025-237Y,2026-07-17T02:36:12.455136,15.34397618,.0001389,53.1584,157.1702,97.7202,262.3958,0,U,66136,999,4244,.20213E-3,.6458E-4,0
STARLINK-35576,2025-237Z,2026-07-17T07:14:34.122048,15.34403986,.0001953,53.1600,156.2411,88.1199,272.0027,0,U,66137,999,4247,.32796E-3,.10722E-3,0
STARLINK-35623,2025-237AA,2026-07-17T01:22:18.745824,15.30200055,.0001468,53.1574,158.9767,92.1695,267.9474,0,U,66138,999,4241,.23985E-3,.6751E-4,0
STARLINK-35549,2025-237AB,2026-07-17T06:47:27.108096,15.34407773,.0000675,53.1608,156.8397,70.2574,289.8501,0,U,66139,999,4246,.4543E-3,.15008E-3,0
STARLINK-35625,2025-237AC,2026-07-17T07:20:37.568832,15.34402921,.0001453,53.1584,156.2692,90.3460,269.7709,0,U,66140,999,4247,.36491E-3,.11974E-3,0
STARLINK-35603,2025-237AD,2026-07-17T13:57:01.300320,15.34392726,.0001968,53.1596,155.1422,78.9080,281.2144,0,U,66141,999,4251,.24962E-3,.8064E-4,0
STARLINK-35318,2025-240A,2026-07-17T08:42:34.058016,15.34402251,.000161,53.1582,178.2593,74.7835,285.3346,0,U,66146,999,4192,.45502E-3,.15029E-3,0
STARLINK-33948,2025-240B,2026-07-17T15:43:53.891904,15.34393181,.0001382,53.1577,178.6529,89.4097,270.7064,0,U,66147,999,4194,.25639E-3,.8294E-4,0
STARLINK-35081,2025-240C,2026-07-17T08:36:29.966688,15.34405367,.000124,53.1573,178.2171,123.5721,236.5400,0,U,66148,999,4187,.32527E-3,.10631E-3,0
STARLINK-35601,2025-240D,2026-07-17T15:40:52.421664,15.34387449,.0002558,53.1593,178.6426,84.9204,275.2090,0,U,66149,999,4189,.17532E-3,.5549E-4,0
STARLINK-35605,2025-240E,2026-07-17T09:07:31.929888,15.34391360,.0003556,53.1572,179.7761,81.4890,278.6515,0,U,66150,999,4185,.35845E-3,.11751E-3,0
STARLINK-35540,2025-240F,2026-07-17T08:21:21.379968,15.34405423,.0001317,53.1586,178.1599,107.3546,252.7601,0,U,66151,999,4187,.44994E-3,.14858E-3,0
STARLINK-35455,2025-240G,2026-07-17T16:16:23.798208,15.34394407,.0001257,53.1572,176.6686,73.8050,286.3091,0,U,66152,999,4192,.28806E-3,.9367E-4,0
STARLINK-34752,2025-240H,2026-07-17T15:22:00.984288,15.34383731,.0000684,53.1575,177.1420,81.2369,278.8711,0,U,66153,999,4191,.44029E-3,.14521E-3,0
STARLINK-34625,2025-240J,2026-07-17T08:22:09.833952,15.34425359,.0001312,53.1593,180.2939,83.1742,276.9410,0,U,66154,999,4189,.36034E-3,.11828E-3,0
STARLINK-35580,2025-240K,2026-07-17T07:57:06.842016,15.34395452,.0000827,53.1589,178.0526,111.3478,248.7613,0,U,66155,999,4187,.25952E-3,.8401E-4,0
STARLINK-35621,2025-240L,2026-07-16T06:45:05.575392,15.34399440,.0001389,53.1585,185.0066,74.6287,285.4869,0,U,66156,999,4168,.1797E-3,.57E-4,0
STARLINK-35594,2025-240M,2026-07-17T07:20:53.371392,15.34395653,.0001233,53.1566,178.6060,88.1265,271.9879,0,U,66157,999,4186,.30754E-3,.10027E-3,0
STARLINK-35587,2025-240N,2026-07-17T16:23:17.039040,15.34399460,.0000479,53.1604,178.8230,50.9540,309.1505,0,U,66158,999,4189,.3426E-3,.11217E-3,0
STARLINK-35586,2025-240P,2026-07-17T07:51:11.140992,15.34401353,.0001271,53.1596,178.7312,97.3210,262.7938,0,U,66159,999,4186,.29251E-3,.952E-4,0
STARLINK-35636,2025-240Q,2026-07-17T06:02:56.645664,15.34406178,.0001308,53.1586,180.3995,78.3291,281.7858,0,U,66160,999,4183,.31685E-3,.10346E-3,0
STARLINK-35635,2025-240R,2026-07-17T02:16:05.803968,15.34395540,.0001579,53.1598,181.5482,91.3983,268.7200,0,U,66161,999,4180,.39078E-3,.12847E-3,0
STARLINK-35633,2025-240S,2026-07-17T08:00:58.452768,15.34400844,.0001259,53.1607,180.1848,69.6766,290.4372,0,U,66162,999,4184,.29379E-3,.9563E-4,0
STARLINK-35607,2025-240T,2026-07-17T16:13:22.214784,15.34414871,.0001729,53.1587,176.6387,68.1886,291.9301,0,U,66163,999,4192,.42824E-3,.14127E-3,0
STARLINK-35614,2025-240U,2026-07-17T08:48:37.437408,15.34408308,.0001436,53.1577,178.2695,77.0860,283.0303,0,U,66164,999,4187,.51758E-3,.17156E-3,0
STARLINK-35575,2025-240V,2026-07-17T08:39:31.608000,15.34413481,.0001114,53.1576,178.2307,87.6831,272.4299,0,U,66165,999,4187,.47439E-3,.15692E-3,0
STARLINK-35624,2025-240W,2026-07-17T16:01:14.831328,15.34391945,.000142,53.1600,176.5817,106.2114,253.9045,0,U,66166,999,4192,.26181E-3,.8477E-4,0
STARLINK-35641,2025-240X,2026-07-17T08:45:35.453952,15.34395395,.0001262,53.1569,178.2519,85.1751,274.9396,0,U,66167,999,4187,.1495E-3,.4677E-4,0
STARLINK-35578,2025-240Y,2026-07-16T22:20:01.907232,15.34414190,.00015932,53.1587,181.9370,62.1710,297.9454,0,U,66168,999,4178,.30453722E-3,.9931E-4,0
STARLINK-35638,2025-240Z,2026-07-17T15:52:59.242656,15.34391021,.0001665,53.1568,178.6763,86.2887,273.8305,0,U,66169,999,4189,.19067E-3,.6069E-4,0
STARLINK-35585,2025-240AA,2026-07-17T07:17:51.446688,15.34398484,.0000783,53.1564,178.5849,97.4373,262.6718,0,U,66170,999,4186,.30997E-3,.1011E-3,0
STARLINK-35606,2025-240AB,2026-07-17T16:04:16.583232,15.34363383,.0002644,53.1574,176.6005,75.1427,284.9868,0,U,66171,999,4192,.18596E-3,.5904E-4,0
STARLINK-35627,2025-240AC,2026-07-17T16:00:03.000096,15.33555124,.0000783,53.1597,179.0712,112.3744,63.4067,0,U,66172,999,588,-.38356E-3,-.12967E-3,0
STARLINK-35634,2025-240AD,2026-07-17T02:18:17.238240,15.34402003,.0001344,53.1581,179.4154,95.6755,264.4401,0,U,66173,999,4183,.27732E-3,.9005E-4,0
STARLINK-35363,2025-243B,2026-07-17T17:10:30.813024,15.34405283,.0001277,53.1612,0.4225,89.4897,270.6252,0,U,66178,999,4057,.29181E-3,.9497E-4,0
STARLINK-35346,2025-243C,2026-07-17T10:28:03.588096,15.34400000,.0001305,53.1605,1.5268,84.4926,275.6226,0,U,66179,999,4053,.23134E-3,.7448E-4,0
STARLINK-35335,2025-243D,2026-07-17T11:34:42.987072,15.34401153,.0001376,53.1605,1.8134,102.6441,257.4715,0,U,66180,999,4053,.42033E-3,.13852E-3,0
STARLINK-35342,2025-243E,2026-07-16T16:30:59.335200,15.34397066,.00011341,53.1605,5.3876,97.5007,262.6124,0,U,66181,999,4041,.40949386E-3,.13483E-3,0
STARLINK-35333,2025-243F,2026-07-17T17:13:32.482848,15.34404255,.0001655,53.1623,0.4408,92.9661,267.1531,0,U,66182,999,4057,.27245E-3,.8841E-4,0
STARLINK-35310,2025-243G,2026-07-16T15:45:31.966272,15.34411494,.00013301,53.1620,5.1946,83.2679,276.8475,0,U,66183,999,4041,.34339385E-3,.11247E-3,0
STARLINK-35317,2025-243H,2026-07-16T20:32:59.102304,15.34411374,.00010413,53.1614,4.3074,88.5783,271.5339,0,U,66184,999,4044,.54127076E-3,.17962E-3,0
STARLINK-35377,2025-243J,2026-07-17T10:40:10.924032,15.34397488,.0001461,53.1609,1.5859,63.2950,296.8202,0,U,66185,999,4053,.36061E-3,.11826E-3,0
STARLINK-35365,2025-243K,2026-07-17T17:40:48.821088,15.34396337,.0000484,53.1614,0.5601,60.5033,299.6018,0,U,66186,999,4057,.24622E-3,.7951E-4,0
STARLINK-35350,2025-243L,2026-07-17T10:25:09.728832,15.34402885,.000186,53.1613,2.2284,60.3555,299.7633,0,U,66187,999,4052,.40047E-3,.13179E-3,0
STARLINK-35041,2025-243M,2026-07-17T11:13:30.422208,15.34403113,.0001444,53.1622,1.7261,93.9702,266.1465,0,U,66188,999,4053,.29427E-3,.958E-4,0
STARLINK-34694,2025-243N,2026-07-17T11:17:45.631392,15.30203473,.0001429,53.1618,2.4381,138.9116,221.1993,0,U,66189,999,4052,.25486E-3,.7197E-4,0
STARLINK-34863,2025-243P,2026-07-17T10:19:06.066048,15.34396867,.0001561,53.1608,2.1982,51.0694,309.0448,0,U,66190,999,4052,.29755E-3,.9689E-4,0
STARLINK-35061,2025-243Q,2026-07-17T17:34:44.832576,15.34406518,.0000981,53.1599,0.5281,90.7119,269.3996,0,U,66191,999,4057,.36207E-3,.11879E-3,0
STARLINK-34937,2025-243R,2026-07-17T10:52:17.484096,15.34381049,.0001217,53.1605,1.6327,79.9567,280.1573,0,U,66192,999,4053,.43983E-3,.14504E-3,0
STARLINK-35197,2025-243S,2026-07-17T17:15:44.674848,15.30202672,.0001298,53.1623,1.1513,87.7107,272.4043,0,U,66193,999,4056,.43006E-3,.124E-3,0
STARLINK-35374,2025-243T,2026-07-17T10:39:15.698016,15.31717248,.0001762,53.1616,1.5746,63.3851,296.7331,0,U,66194,999,4053,.27442E-3,.8164E-4,0
